{
  "type": "FeatureCollection",
  "features": [
    {
      "type": "Feature",
      "properties": {
        "norad_id": 66760,
        "name": "TRANSPORTER-15CY",
        "group": "last-30-days",
        "lat": -43.403010749849436,
        "lon": -116.36160469161945,
        "alt_km": 518.4185317129186,
        "timestamp": "2025-12-25T03:55:54.953465+00:00",
        "meta_object_name": "TRANSPORTER-15CY",
        "meta_object_id": "2025-276CY",
        "meta_epoch": "2025-12-24T19:02:25.216224",
        "meta_mean_motion": 15.18210405,
        "meta_eccentricity": 0.0001762,
        "meta_inclination": 97.4395,
        "meta_ra_of_asc_node": 70.3729,
        "meta_arg_of_pericenter": 112.6956,
        "meta_mean_anomaly": 247.4464,
        "meta_ephemeris_type": 0,
        "meta_classification_type": "U",
        "meta_norad_cat_id": 66760,
        "meta_element_set_no": 999,
        "meta_rev_at_epoch": 395,
        "meta_bstar": 0.00033038,
        "meta_mean_motion_dot": 6.692e-05,
        "meta_mean_motion_ddot": 0,
        "tle_line1": "1 66760U 25276CY  25358.79334741  .00006692  00000+0  33038-3 0  9990",
        "tle_line2": "2 66760  97.4395  70.3729 0001762 112.6956 247.4464 15.18210405  3953"
      },
      "geometry": {
        "type": "Point",
        "coordinates": [
          -116.36160469161945,
          -43.403010749849436
        ]
      }
    },
    {
      "type": "Feature",
      "properties": {
        "norad_id": 66761,
        "name": "TRANSPORTER-15CZ",
        "group": "last-30-days",
        "lat": -59.232542596856305,
        "lon": -121.93478968468821,
        "alt_km": 518.0623638679854,
        "timestamp": "2025-12-25T03:55:54.953475+00:00",
        "meta_object_name": "TRANSPORTER-15CZ",
        "meta_object_id": "2025-276CZ",
        "meta_epoch": "2025-12-24T18:58:15.038112",
        "meta_mean_motion": 15.18514448,
        "meta_eccentricity": 0.0001763,
        "meta_inclination": 97.4394,
        "meta_ra_of_asc_node": 70.3764,
        "meta_arg_of_pericenter": 121.9356,
        "meta_mean_anomaly": 238.205,
        "meta_ephemeris_type": 0,
        "meta_classification_type": "U",
        "meta_norad_cat_id": 66761,
        "meta_element_set_no": 999,
        "meta_rev_at_epoch": 395,
        "meta_bstar": 0.00052308,
        "meta_mean_motion_dot": 0.00010734,
        "meta_mean_motion_ddot": 0,
        "tle_line1": "1 66761U 25276CZ  25358.79045183  .00010734  00000+0  52308-3 0  9993",
        "tle_line2": "2 66761  97.4394  70.3764 0001763 121.9356 238.2050 15.18514448  3953"
      },
      "geometry": {
        "type": "Point",
        "coordinates": [
          -121.93478968468821,
          -59.232542596856305
        ]
      }
    },
    {
      "type": "Feature",
      "properties": {
        "norad_id": 66762,
        "name": "HYDROGNSS-1",
        "group": "last-30-days",
        "lat": 35.610051647528074,
        "lon": -103.9229828946339,
        "alt_km": 511.68812710567454,
        "timestamp": "2025-12-25T03:55:54.953485+00:00",
        "meta_object_name": "HYDROGNSS-1",
        "meta_object_id": "2025-276DA",
        "meta_epoch": "2025-12-24T19:23:08.915712",
        "meta_mean_motion": 15.17319244,
        "meta_eccentricity": 9.86e-05,
        "meta_inclination": 97.4405,
        "meta_ra_of_asc_node": 70.3567,
        "meta_arg_of_pericenter": 244.7382,
        "meta_mean_anomaly": 115.375,
        "meta_ephemeris_type": 0,
        "meta_classification_type": "U",
        "meta_norad_cat_id": 66762,
        "meta_element_set_no": 999,
        "meta_rev_at_epoch": 395,
        "meta_bstar": 0.00045904,
        "meta_mean_motion_dot": 9.092e-05,
        "meta_mean_motion_ddot": 0,
        "tle_line1": "1 66762U 25276DA  25358.80774208  .00009092  00000+0  45904-3 0  9992",
        "tle_line2": "2 66762  97.4405  70.3567 0000986 244.7382 115.3750 15.17319244  3955"
      },
      "geometry": {
        "type": "Point",
        "coordinates": [
          -103.9229828946339,
          35.610051647528074
        ]
      }
    },
    {
      "type": "Feature",
      "properties": {
        "norad_id": 66763,
        "name": "HYDROGNSS-2",
        "group": "last-30-days",
        "lat": 23.670802854806766,
        "lon": -105.99980528446784,
        "alt_km": 512.7678045924304,
        "timestamp": "2025-12-25T03:55:54.953495+00:00",
        "meta_object_name": "HYDROGNSS-2",
        "meta_object_id": "2025-276DB",
        "meta_epoch": "2025-12-24T19:20:00.313152",
        "meta_mean_motion": 15.17440251,
        "meta_eccentricity": 0.0001579,
        "meta_inclination": 97.4409,
        "meta_ra_of_asc_node": 70.3639,
        "meta_arg_of_pericenter": 227.3073,
        "meta_mean_anomaly": 132.8028,
        "meta_ephemeris_type": 0,
        "meta_classification_type": "U",
        "meta_norad_cat_id": 66763,
        "meta_element_set_no": 999,
        "meta_rev_at_epoch": 395,
        "meta_bstar": 0.00021085,
        "meta_mean_motion_dot": 4.152e-05,
        "meta_mean_motion_ddot": 0,
        "tle_line1": "1 66763U 25276DB  25358.80555918  .00004152  00000+0  21085-3 0  9994",
        "tle_line2": "2 66763  97.4409  70.3639 0001579 227.3073 132.8028 15.17440251  3958"
      },
      "geometry": {
        "type": "Point",
        "coordinates": [
          -105.99980528446784,
          23.670802854806766
        ]
      }
    },
    {
      "type": "Feature",
      "properties": {
        "norad_id": 66764,
        "name": "TRANSPORTER-15DC",
        "group": "last-30-days",
        "lat": -2.22464412827324,
        "lon": -109.5699755648314,
        "alt_km": 514.622612489653,
        "timestamp": "2025-12-25T03:55:54.953505+00:00",
        "meta_object_name": "TRANSPORTER-15DC",
        "meta_object_id": "2025-276DC",
        "meta_epoch": "2025-12-24T19:13:13.033056",
        "meta_mean_motion": 15.17708244,
        "meta_eccentricity": 0.0002178,
        "meta_inclination": 97.4403,
        "meta_ra_of_asc_node": 70.3642,
        "meta_arg_of_pericenter": 186.7978,
        "meta_mean_anomaly": 173.3227,
        "meta_ephemeris_type": 0,
        "meta_classification_type": "U",
        "meta_norad_cat_id": 66764,
        "meta_element_set_no": 999,
        "meta_rev_at_epoch": 395,
        "meta_bstar": 0.00042662,
        "meta_mean_motion_dot": 8.539e-05,
        "meta_mean_motion_ddot": 0,
        "tle_line1": "1 66764U 25276DC  25358.80084529  .00008539  00000+0  42662-3 0  9997",
        "tle_line2": "2 66764  97.4403  70.3642 0002178 186.7978 173.3227 15.17708244  3955"
      },
      "geometry": {
        "type": "Point",
        "coordinates": [
          -109.5699755648314,
          -2.22464412827324
        ]
      }
    },
    {
      "type": "Feature",
      "properties": {
        "norad_id": 66765,
        "name": "TRANSPORTER-15DD",
        "group": "last-30-days",
        "lat": -77.91109815828075,
        "lon": -146.85009604282402,
        "alt_km": 518.0047034070112,
        "timestamp": "2025-12-25T03:55:54.953517+00:00",
        "meta_object_name": "TRANSPORTER-15DD",
        "meta_object_id": "2025-276DD",
        "meta_epoch": "2025-12-24T17:18:05.087808",
        "meta_mean_motion": 15.18775398,
        "meta_eccentricity": 0.0002011,
        "meta_inclination": 97.4418,
        "meta_ra_of_asc_node": 70.324,
        "meta_arg_of_pericenter": 116.2556,
        "meta_mean_anomaly": 243.8885,
        "meta_ephemeris_type": 0,
        "meta_classification_type": "U",
        "meta_norad_cat_id": 66765,
        "meta_element_set_no": 999,
        "meta_rev_at_epoch": 394,
        "meta_bstar": 0.00063207,
        "meta_mean_motion_dot": 0.00013087,
        "meta_mean_motion_ddot": 0,
        "tle_line1": "1 66765U 25276DD  25358.72089222  .00013087  00000+0  63207-3 0  9996",
        "tle_line2": "2 66765  97.4418  70.3240 0002011 116.2556 243.8885 15.18775398  3949"
      },
      "geometry": {
        "type": "Point",
        "coordinates": [
          -146.85009604282402,
          -77.91109815828075
        ]
      }
    },
    {
      "type": "Feature",
      "properties": {
        "norad_id": 66766,
        "name": "TRANSPORTER-15DE",
        "group": "last-30-days",
        "lat": -61.82995392050092,
        "lon": -123.38270247483221,
        "alt_km": 519.053277696059,
        "timestamp": "2025-12-25T03:55:54.953529+00:00",
        "meta_object_name": "TRANSPORTER-15DE",
        "meta_object_id": "2025-276DE",
        "meta_epoch": "2025-12-24T17:22:36.909984",
        "meta_mean_motion": 15.18433163,
        "meta_eccentricity": 0.0002046,
        "meta_inclination": 97.4359,
        "meta_ra_of_asc_node": 70.3008,
        "meta_arg_of_pericenter": 87.8154,
        "meta_mean_anomaly": 272.3314,
        "meta_ephemeris_type": 0,
        "meta_classification_type": "U",
        "meta_norad_cat_id": 66766,
        "meta_element_set_no": 999,
        "meta_rev_at_epoch": 394,
        "meta_bstar": 0.00035937,
        "meta_mean_motion_dot": 7.333e-05,
        "meta_mean_motion_ddot": 0,
        "tle_line1": "1 66766U 25276DE  25358.72403831  .00007333  00000+0  35937-3 0  9999",
        "tle_line2": "2 66766  97.4359  70.3008 0002046  87.8154 272.3314 15.18433163  3946"
      },
      "geometry": {
        "type": "Point",
        "coordinates": [
          -123.38270247483221,
          -61.82995392050092
        ]
      }
    }
  ]
}